[{"OBJECT_NAME":"ONEWEB-0318","OBJECT_ID":"2021-075AF","EPOCH":"2026-03-09T19:59:52.260000","MEAN_MOTION":13.18685721,"ECCENTRICITY":0.00016348,"INCLINATION":87.9252,"RA_OF_ASC_NODE":355.1882,"ARG_OF_PERICENTER":70.4888,"MEAN_ANOMALY":289.6421,"EPHEMERIS_TYPE":0,"CLASSIFICATION_TYPE":"U","NORAD_CAT_ID":49104,"ELEMENT_SET_NO":999,"REV_AT_EPOCH":22407,"BSTAR":0.00018467866,"MEAN_MOTION_DOT":8.6e-7,"MEAN_MOTION_DDOT":0},{"OBJECT_NAME":"COSMOS 2251 DEB","OBJECT_ID":"1993-036DT","EPOCH":"2026-03-09T20:48:19.887840","MEAN_MOTION":13.72114793,"ECCENTRICITY":0.03036526,"INCLINATION":74.0885,"RA_OF_ASC_NODE":231.4855,"ARG_OF_PERICENTER":314.1397,"MEAN_ANOMALY":162.9879,"EPHEMERIS_TYPE":0,"CLASSIFICATION_TYPE":"U","NORAD_CAT_ID":33914,"ELEMENT_SET_NO":999,"REV_AT_EPOCH":85276,"BSTAR":0.00047012371,"MEAN_MOTION_DOT":5.7e-6,"MEAN_MOTION_DDOT":0}]
